{
  "type": "FeatureCollection",
  "features": [
    {
      "type": "Feature",
      "properties": {
        "norad_id": 29954,
        "name": "FENGYUN 1C DEB",
        "group": "fengyun-1c-debris",
        "lat": 33.18550180109813,
        "lon": -150.63659646736525,
        "alt_km": 808.3720141824369,
        "timestamp": "2025-12-10T20:49:52.826220+00:00",
        "meta_object_name": "FENGYUN 1C DEB",
        "meta_object_id": "1999-025KC",
        "meta_epoch": "2025-12-10T13:26:52.874016",
        "meta_mean_motion": 14.34211481,
        "meta_eccentricity": 0.00743006,
        "meta_inclination": 100.1512,
        "meta_ra_of_asc_node": 22.2735,
        "meta_arg_of_pericenter": 275.4369,
        "meta_mean_anomaly": 83.8337,
        "meta_ephemeris_type": 0,
        "meta_classification_type": "U",
        "meta_norad_cat_id": 29954,
        "meta_element_set_no": 999,
        "meta_rev_at_epoch": 98156,
        "meta_bstar": 0.0012232711,
        "meta_mean_motion_dot": 3.481e-05,
        "meta_mean_motion_ddot": 0,
        "tle_line1": "1 29954U 99025KC  25344.56033419  .00003481  00000+0  12233-2 0  9991",
        "tle_line2": "2 29954 100.1512  22.2735 0074300 275.4369  83.8337 14.34211481981562"
      },
      "geometry": {
        "type": "Point",
        "coordinates": [
          -150.63659646736525,
          33.18550180109813
        ]
      }
    },
    {
      "type": "Feature",
      "properties": {
        "norad_id": 29955,
        "name": "FENGYUN 1C DEB",
        "group": "fengyun-1c-debris",
        "lat": -32.14398961365622,
        "lon": -120.50531012782264,
        "alt_km": 766.4169545699087,
        "timestamp": "2025-12-10T20:49:52.826230+00:00",
        "meta_object_name": "FENGYUN 1C DEB",
        "meta_object_id": "1999-025KD",
        "meta_epoch": "2025-12-10T04:56:44.824704",
        "meta_mean_motion": 14.3820401,
        "meta_eccentricity": 0.00074488,
        "meta_inclination": 99.2736,
        "meta_ra_of_asc_node": 64.6735,
        "meta_arg_of_pericenter": 255.3563,
        "meta_mean_anomaly": 132.1363,
        "meta_ephemeris_type": 0,
        "meta_classification_type": "U",
        "meta_norad_cat_id": 29955,
        "meta_element_set_no": 999,
        "meta_rev_at_epoch": 98025,
        "meta_bstar": 0.0022017308,
        "meta_mean_motion_dot": 6.645e-05,
        "meta_mean_motion_ddot": 0,
        "tle_line1": "1 29955U 99025KD  25344.20607436  .00006645  00000+0  22017-2 0  9995",
        "tle_line2": "2 29955  99.2736  64.6735 0007448 255.3563 132.1363 14.38204010980257"
      },
      "geometry": {
        "type": "Point",
        "coordinates": [
          -120.50531012782264,
          -32.14398961365622
        ]
      }
    },
    {
      "type": "Feature",
      "properties": {
        "norad_id": 29956,
        "name": "FENGYUN 1C DEB",
        "group": "fengyun-1c-debris",
        "lat": 46.591978331487496,
        "lon": -156.80640194722932,
        "alt_km": 881.410745625476,
        "timestamp": "2025-12-10T20:49:52.826240+00:00",
        "meta_object_name": "FENGYUN 1C DEB",
        "meta_object_id": "1999-025KE",
        "meta_epoch": "2025-12-10T10:13:33.161664",
        "meta_mean_motion": 14.06170639,
        "meta_eccentricity": 0.00538617,
        "meta_inclination": 98.7921,
        "meta_ra_of_asc_node": 13.3479,
        "meta_arg_of_pericenter": 24.0451,
        "meta_mean_anomaly": 32.2599,
        "meta_ephemeris_type": 0,
        "meta_classification_type": "U",
        "meta_norad_cat_id": 29956,
        "meta_element_set_no": 999,
        "meta_rev_at_epoch": 97017,
        "meta_bstar": 8.869035e-06,
        "meta_mean_motion_dot": -2.8e-07,
        "meta_mean_motion_ddot": 0,
        "tle_line1": "1 29956U 99025KE  25344.42607826 -.00000028  00000+0  88690-5 0  9995",
        "tle_line2": "2 29956  98.7921  13.3479 0053861  24.0451  32.2599 14.06170639970176"
      },
      "geometry": {
        "type": "Point",
        "coordinates": [
          -156.80640194722932,
          46.591978331487496
        ]
      }
    },
    {
      "type": "Feature",
      "properties": {
        "norad_id": 29957,
        "name": "FENGYUN 1C DEB",
        "group": "fengyun-1c-debris",
        "lat": -62.111011387740604,
        "lon": -85.54027437086137,
        "alt_km": 715.8708336524978,
        "timestamp": "2025-12-10T20:49:52.826251+00:00",
        "meta_object_name": "FENGYUN 1C DEB",
        "meta_object_id": "1999-025KF",
        "meta_epoch": "2025-12-10T08:24:41.503968",
        "meta_mean_motion": 14.50973753,
        "meta_eccentricity": 0.00381812,
        "meta_inclination": 98.9205,
        "meta_ra_of_asc_node": 111.1758,
        "meta_arg_of_pericenter": 184.9836,
        "meta_mean_anomaly": 236.4535,
        "meta_ephemeris_type": 0,
        "meta_classification_type": "U",
        "meta_norad_cat_id": 29957,
        "meta_element_set_no": 999,
        "meta_rev_at_epoch": 97457,
        "meta_bstar": 0.0077816608,
        "meta_mean_motion_dot": 0.00031141,
        "meta_mean_motion_ddot": 0,
        "tle_line1": "1 29957U 99025KF  25344.35048037  .00031141  00000+0  77817-2 0  9996",
        "tle_line2": "2 29957  98.9205 111.1758 0038181 184.9836 236.4535 14.50973753974575"
      },
      "geometry": {
        "type": "Point",
        "coordinates": [
          -85.54027437086137,
          -62.111011387740604
        ]
      }
    },
    {
      "type": "Feature",
      "properties": {
        "norad_id": 29958,
        "name": "FENGYUN 1C DEB",
        "group": "fengyun-1c-debris",
        "lat": 42.711374721475124,
        "lon": -8.80630134987948,
        "alt_km": 823.6553430378635,
        "timestamp": "2025-12-10T20:49:52.826261+00:00",
        "meta_object_name": "FENGYUN 1C DEB",
        "meta_object_id": "1999-025KG",
        "meta_epoch": "2025-12-10T12:08:24.797184",
        "meta_mean_motion": 14.14452454,
        "meta_eccentricity": 0.00544697,
        "meta_inclination": 98.6687,
        "meta_ra_of_asc_node": 358.9383,
        "meta_arg_of_pericenter": 339.6775,
        "meta_mean_anomaly": 20.2231,
        "meta_ephemeris_type": 0,
        "meta_classification_type": "U",
        "meta_norad_cat_id": 29958,
        "meta_element_set_no": 999,
        "meta_rev_at_epoch": 97419,
        "meta_bstar": 0.00051154099,
        "meta_mean_motion_dot": 9.51e-06,
        "meta_mean_motion_ddot": 0,
        "tle_line1": "1 29958U 99025KG  25344.50584256  .00000951  00000+0  51154-3 0  9994",
        "tle_line2": "2 29958  98.6687 358.9383 0054469 339.6775  20.2231 14.14452454974190"
      },
      "geometry": {
        "type": "Point",
        "coordinates": [
          -8.80630134987948,
          42.711374721475124
        ]
      }
    },
    {
      "type": "Feature",
      "properties": {
        "norad_id": 29959,
        "name": "FENGYUN 1C DEB",
        "group": "fengyun-1c-debris",
        "lat": 74.26928086932024,
        "lon": -17.818874133112267,
        "alt_km": 872.9290914922067,
        "timestamp": "2025-12-10T20:49:52.826271+00:00",
        "meta_object_name": "FENGYUN 1C DEB",
        "meta_object_id": "1999-025KH",
        "meta_epoch": "2025-12-10T08:35:43.474848",
        "meta_mean_motion": 14.06014122,
        "meta_eccentricity": 0.00417602,
        "meta_inclination": 98.8086,
        "meta_ra_of_asc_node": 15.0872,
        "meta_arg_of_pericenter": 334.7673,
        "meta_mean_anomaly": 42.5565,
        "meta_ephemeris_type": 0,
        "meta_classification_type": "U",
        "meta_norad_cat_id": 29959,
        "meta_element_set_no": 999,
        "meta_rev_at_epoch": 96907,
        "meta_bstar": 0.0001733286,
        "meta_mean_motion_dot": 2.43e-06,
        "meta_mean_motion_ddot": 0,
        "tle_line1": "1 29959U 99025KH  25344.35814207  .00000243  00000+0  17333-3 0  9995",
        "tle_line2": "2 29959  98.8086  15.0872 0041760 334.7673  42.5565 14.06014122969078"
      },
      "geometry": {
        "type": "Point",
        "coordinates": [
          -17.818874133112267,
          74.26928086932024
        ]
      }
    },
    {
      "type": "Feature",
      "properties": {
        "norad_id": 29960,
        "name": "FENGYUN 1C DEB",
        "group": "fengyun-1c-debris",
        "lat": 78.46769902617007,
        "lon": -77.48324391104391,
        "alt_km": 887.2952129097039,
        "timestamp": "2025-12-10T20:49:52.826281+00:00",
        "meta_object_name": "FENGYUN 1C DEB",
        "meta_object_id": "1999-025KJ",
        "meta_epoch": "2025-12-10T12:34:52.582080",
        "meta_mean_motion": 14.16396281,
        "meta_eccentricity": 0.00910148,
        "meta_inclination": 98.6143,
        "meta_ra_of_asc_node": 330.1658,
        "meta_arg_of_pericenter": 292.7181,
        "meta_mean_anomaly": 197.2722,
        "meta_ephemeris_type": 0,
        "meta_classification_type": "U",
        "meta_norad_cat_id": 29960,
        "meta_element_set_no": 999,
        "meta_rev_at_epoch": 97423,
        "meta_bstar": 0.000748542,
        "meta_mean_motion_dot": 1.505e-05,
        "meta_mean_motion_ddot": 0,
        "tle_line1": "1 29960U 99025KJ  25344.52421970  .00001505  00000+0  74854-3 0  9990",
        "tle_line2": "2 29960  98.6143 330.1658 0091014 292.7181 197.2722 14.16396281974236"
      },
      "geometry": {
        "type": "Point",
        "coordinates": [
          -77.48324391104391,
          78.46769902617007
        ]
      }
    }
  ]
}